GLOBAL-2                
1 43812U 18099BG  26198.05225673  .00001748  00000+0  11487-3 0  9994
2 43812  97.3547 233.3239 0007298  62.0863 298.1105 15.08832086416414
GLOBAL-4                
1 44499U 19054E   26197.80668421  .00040052  00000+0  36571-3 0  9994
2 44499  45.0056  65.1287 0005631 206.9473 153.1134 15.67212279385003
GLOBAL-9                
1 47971U 21023G   26198.08288830  .00013006  00000+0  25272-3 0  9999
2 47971  44.9813  82.3525 0003689 182.4746 177.6127 15.47659392299576
GLOBAL-14               
1 49469U 21106A   26198.21669131  .00015885  00000+0  26114-3 0  9990
2 49469  42.0038 112.4286 0018110 237.3645 122.5452 15.51894609262791
GLOBAL-12               
1 49772U 21115BA  26197.45500146  .00019610  00000+0  28962-3 0  9995
2 49772  53.1939 263.6186 0002904  72.6908 287.4421 15.55381310260457
GLOBAL-13               
1 49773U 21115BB  26198.23277000  .00010960  00000+0  22059-3 0  9993
2 49773  53.1964 271.6350 0000393 152.0202 208.0828 15.47158506260414
GLOBAL-17               
1 49949U 21120A   26198.24913398  .00014814  00000+0  22859-3 0  9992
2 49949  41.9928 229.9463 0013417 106.8895 253.3422 15.53782157259571
GLOBAL-16               
1 49950U 21120B   26198.24017550  .00013288  00000+0  22307-3 0  9991
2 49950  41.9931 234.3140 0011437  96.3271 263.8876 15.51539849259519
GLOBAL-18               
1 52196U 22034B   26198.17051854  .00013880  00000+0  27580-3 0  9995
2 52196  52.9819 113.2285 0004534  30.5312 329.5957 15.47277309241609
GLOBAL-19               
1 55982U 23041B   26197.96304192  .00007985  00000+0  21046-3 0  9992
2 55982  42.0020  28.1568 0009894 229.4763 130.5216 15.38711918186515
GLOBAL-5                
1 55983U 23041C   26197.93079351  .00008488  00000+0  22325-3 0  9996
2 55983  42.0015  27.8708 0008773 224.7013 135.3120 15.38724798186510
